IRIDIUM 5               
1 24795U 97020D   25151.56775652  .00003669  00000+0  30203-3 0  9996
2 24795  86.3882  91.3954 0108084 196.6832 163.0834 14.94233633482985
IRIDIUM 914             
1 24836U 97030A   25151.56616660  .00000355  00000+0  10453-3 0  9990
2 24836  86.3968 189.4072 0000746  84.9974 275.1311 14.40858738604732
IRIDIUM 16              
1 24841U 97030F   25151.57075895  .00000373  00000+0  11524-3 0  9996
2 24841  86.4066 212.2496 0004472 106.7972 253.3717 14.38703296464618
IRIDIUM 911             
1 24842U 97030G   25151.59624136  .00000489  00000+0  12705-3 0  9997
2 24842  86.4490 211.0264 0015553 145.5369 214.6846 14.47623390472688
IRIDIUM 17              
1 24870U 97034B   25151.61737048  .00000420  00000+0  13294-3 0  9991
2 24870  86.3971 241.7158 0003848  84.6396 275.5241 14.37815548461209
